GSAT0215 (GALILEO 19)   
1 43055U 17079A   26154.52423835  .00000040  00000+0  00000+0 0  9993
2 43055  55.0769 221.8831 0002673 260.8878  99.1749  1.70474805 52757
GSAT0216 (GALILEO 20)   
1 43056U 17079B   26153.64223822  .00000039  00000+0  00000+0 0  9998
2 43056  55.0774 221.9072 0004431 276.5750  83.4685  1.70474963 52759
GSAT0217 (GALILEO 21)   
1 43057U 17079C   26153.27644679  .00000038  00000+0  00000+0 0  9994
2 43057  55.0745 221.9149 0004771 284.9791  75.0620  1.70474564 52739
GSAT0218 (GALILEO 22)   
1 43058U 17079D   26152.32335559  .00000035  00000+0  00000+0 0  9991
2 43058  55.0759 221.9389 0004296 273.4350  86.6085  1.70474881 52743
BEIDOU-3 M7             
1 43107U 18003A   26153.31562551 -.00000071  00000+0  00000+0 0  9999
2 43107  54.3417 302.8330 0005070  90.2688 269.7671  1.86228333 57078
BEIDOU-3 M8             
1 43108U 18003B   26154.87148796 -.00000062  00000+0  00000+0 0  9993
2 43108  54.3329 302.7607 0002188 267.2585  92.6999  1.86231291 57114
BEIDOU-3 M4             
1 43207U 18018A   26152.09262207 -.00000065  00000+0  00000+0 0  9998
2 43207  56.6373  63.6787 0007684  13.3710 346.6582  1.86231482 56443
BEIDOU-3 M3             
1 43208U 18018B   26154.30692756 -.00000046  00000+0  00000+0 0  9990
2 43208  56.6388  63.6101 0009023 337.6443  22.3370  1.86231435 56489
BEIDOU-3 M9             
1 43245U 18029A   26153.98770463 -.00000065  00000+0  00000+0 0  9999
2 43245  54.2071 300.4454 0000846 129.9393 230.0488  1.86228707 55638
BEIDOU-3 M10            
1 43246U 18029B   26153.92214002 -.00000065  00000+0  00000+0 0  9996
2 43246  54.2045 300.4735 0004218  39.7967 320.2145  1.86229469 55610
IRNSS-1I                
1 43286U 18035A   26154.86296579  .00000083  00000+0  00000+0 0  9999
2 43286  28.7232  74.4103 0018238 238.1364 305.5602  1.00268957 29940
COSMOS 2527 [GLONASS-M] 
1 43508U 18053A   26154.47607152 -.00000013  00000+0  00000+0 0  9990
2 43508  65.5707  74.3639 0007385 242.6026 117.3366  2.13102282 61981
BEIDOU-2 IGSO-7         
1 43539U 18057A   26154.94524668 -.00000006  00000+0  00000+0 0  9992
2 43539  55.1930 163.1730 0104471 237.8941 302.5487  1.00255567 28999
GSAT0221 (GALILEO 25)   
1 43564U 18060A   26152.22723269 -.00000081  00000+0  00000+0 0  9994
2 43564  57.1775 342.2110 0002878 313.2463  46.7439  1.70476150 48899
GSAT0222 (GALILEO 26)   
1 43565U 18060B   26153.62003207 -.00000077  00000+0  00000+0 0  9998
2 43565  57.1811 342.1774 0001801 259.8309 100.1613  1.70475858 48966
GSAT0219 (GALILEO 23)   
1 43566U 18060C   26154.42752566 -.00000074  00000+0  00000+0 0  9994
2 43566  57.1769 342.1569 0002339 331.8363  28.1630  1.70476116 48954
GSAT0220 (GALILEO 24)   
1 43567U 18060D   26152.88875620 -.00000079  00000+0  00000+0 0  9995
2 43567  57.1762 342.1988 0002392 324.4243  35.5731  1.70476143 48917
BEIDOU-3 M5             
1 43581U 18062A   26153.07238422  .00000068  00000+0  00000+0 0  9995
2 43581  54.0848 182.8178 0005400 289.3317  70.6790  1.86228829 53350
BEIDOU-3 M6             
1 43582U 18062B   26152.39883191  .00000072  00000+0  00000+0 0  9994
2 43582  54.0843 182.8299 0004893  10.9219 349.1611  1.86227844 53345
BEIDOU-3 M12            
1 43602U 18067A   26154.48504632  .00000068  00000+0  00000+0 0  9999
2 43602  54.1795 181.5047 0007805  30.5016 329.6039  1.86227912 52860
BEIDOU-3 M11            
1 43603U 18067B   26154.62006891  .00000068  00000+0  00000+0 0  9990
2 43603  54.1771 181.4639 0004486  14.2691 345.8030  1.86227374 52897
BEIDOU-3 M13            
1 43622U 18072A   26152.96411940 -.00000057  00000+0  00000+0 0  9996
2 43622  56.6123  63.1614 0007816 326.1971  33.7678  1.86231411 52372
BEIDOU-3 M14            
1 43623U 18072B   26152.29259498 -.00000063  00000+0  00000+0 0  9998
2 43623  56.6136  63.1776 0006504 353.8390   6.1639  1.86231413 52352
BEIDOU-3 M16            
1 43647U 18078A   26155.13289917 -.00000059  00000+0  00000+0 0  9990
2 43647  54.1026 300.4437 0007437  40.6821 319.3585  1.86232447 51914
BEIDOU-3 M15            
1 43648U 18078B   26152.57744501 -.00000074  00000+0  00000+0 0  9998
2 43648  54.1007 300.5335 0004536  56.3394 303.6792  1.86232507 51887
BEIDOU-3 G1             
1 43683U 18085A   26155.16902799 -.00000097  00000+0  00000+0 0  9993
2 43683   2.8355  97.7357 0008549 345.5119  30.2041  1.00272093 27936
COSMOS 2529 [GLONASS-M] 
1 43687U 18086A   26153.16491316  .00000069  00000+0  00000+0 0  9992
2 43687  64.2936 193.1017 0011618 256.1127 103.8395  2.13102175 58962
BEIDOU-3 M17            
1 43706U 18093A   26154.62162884  .00000067  00000+0  00000+0 0  9997
2 43706  54.1684 182.7566 0009972 291.4336 250.9335  1.86228565 51286
BEIDOU-3 M18            
1 43707U 18093B   26153.13892792  .00000068  00000+0  00000+0 0  9992
2 43707  54.1690 182.7990 0007761 321.3599  38.6535  1.86226715 51258
NAVSTAR 77 (USA 289)    
1 43873U 18109A   26154.79991542  .00000001  00000+0  00000+0 0  9997
2 43873  55.6741  92.7152 0038223 198.2612 339.3200  2.00561239 54803
BEIDOU-3 IGSO-1         
1 44204U 19023A   26141.61780730 -.00000234  00000+0  00000+0 0  9993
2 44204  58.6591  37.9235 0025546 227.4594 312.4431  1.00299087  6947
