OBJECT_NAME,OBJECT_ID,EPOCH,MEAN_MOTION,ECCENTRICITY,INCLINATION,RA_OF_ASC_NODE,ARG_OF_PERICENTER,MEAN_ANOMALY,EPHEMERIS_TYPE,CLASSIFICATION_TYPE,NORAD_CAT_ID,ELEMENT_SET_NO,REV_AT_EPOCH,BSTAR,MEAN_MOTION_DOT,MEAN_MOTION_DDOT
GSAT0215 (GALILEO 19),2017-079A,2026-06-03T12:34:54.193440,1.70474805,.00026737,55.0769,221.8831,260.8878,99.1749,0,U,43055,999,5275,0,.4E-6,0
GSAT0216 (GALILEO 20),2017-079B,2026-06-02T15:24:49.382208,1.70474963,.00044319,55.0774,221.9072,276.5750,83.4685,0,U,43056,999,5275,0,.39E-6,0
GSAT0217 (GALILEO 21),2017-079C,2026-06-02T06:38:05.002656,1.70474564,.0004771,55.0745,221.9149,284.9791,75.0620,0,U,43057,999,5273,0,.38E-6,0
GSAT0218 (GALILEO 22),2017-079D,2026-06-01T07:45:37.922976,1.70474881,.00042969,55.0759,221.9389,273.4350,86.6085,0,U,43058,999,5274,0,.35E-6,0
BEIDOU-3 M7 (C27),2018-003A,2026-06-02T07:34:30.044064,1.86228333,.00050705,54.3417,302.8330,90.2688,269.7671,0,U,43107,999,5707,0,-.71E-6,0
BEIDOU-3 M8 (C28),2018-003B,2026-06-03T20:54:56.559744,1.86231291,.00021883,54.3329,302.7607,267.2585,92.6999,0,U,43108,999,5711,0,-.62E-6,0
BEIDOU-3 M4 (C22),2018-018A,2026-06-01T02:13:22.546848,1.86231482,.0007684,56.6373,63.6787,13.3710,346.6582,0,U,43207,999,5644,0,-.65E-6,0
BEIDOU-3 M3 (C21),2018-018B,2026-06-03T07:21:58.541184,1.86231435,.00090239,56.6388,63.6101,337.6443,22.3370,0,U,43208,999,5648,0,-.46E-6,0
BEIDOU-3 M9 (C29),2018-029A,2026-06-02T23:42:17.680032,1.86228707,.00008462,54.2071,300.4454,129.9393,230.0488,0,U,43245,999,5563,0,-.65E-6,0
BEIDOU-3 M10 (C30),2018-029B,2026-06-02T22:07:52.897728,1.86229469,.0004218,54.2045,300.4735,39.7967,320.2145,0,U,43246,999,5561,0,-.65E-6,0
IRNSS-1I,2018-035A,2026-06-03T20:42:40.244256,1.00268957,.0018238,28.7232,74.4103,238.1364,305.5602,0,U,43286,999,2994,0,.83E-6,0
COSMOS 2527 (756),2018-053A,2026-06-03T11:25:32.579328,2.13102282,.00073854,65.5707,74.3639,242.6026,117.3366,0,U,43508,999,6198,0,-.13E-6,0
BEIDOU-2 IGSO-7 (C16),2018-057A,2026-06-03T22:41:09.313152,1.00255567,.0104471,55.1930,163.1730,237.8941,302.5487,0,U,43539,999,2899,0,-.6E-7,0
GSAT0221 (GALILEO 25),2018-060A,2026-06-01T05:27:12.904416,1.70476150,.0002878,57.1775,342.2110,313.2463,46.7439,0,U,43564,999,4889,0,-.81E-6,0
GSAT0222 (GALILEO 26),2018-060B,2026-06-02T14:52:50.770848,1.70475858,.00018015,57.1811,342.1774,259.8309,100.1613,0,U,43565,999,4896,0,-.77E-6,0
GSAT0219 (GALILEO 23),2018-060C,2026-06-03T10:15:38.217024,1.70476116,.0002339,57.1769,342.1569,331.8363,28.1630,0,U,43566,999,4895,0,-.74E-6,0
GSAT0220 (GALILEO 24),2018-060D,2026-06-01T21:19:48.535680,1.70476143,.0002392,57.1762,342.1988,324.4243,35.5731,0,U,43567,999,4891,0,-.79E-6,0
BEIDOU-3 M5 (C23),2018-062A,2026-06-02T01:44:13.996608,1.86228829,.00054009,54.0848,182.8178,289.3317,70.6790,0,U,43581,999,5335,0,.68E-6,0
BEIDOU-3 M6 (C24),2018-062B,2026-06-01T09:34:19.077024,1.86227844,.0004893,54.0843,182.8299,10.9219,349.1611,0,U,43582,999,5334,0,.72E-6,0
BEIDOU-3 M12 (C26),2018-067A,2026-06-03T11:38:28.002048,1.86227912,.00078052,54.1795,181.5047,30.5016,329.6039,0,U,43602,999,5286,0,.68E-6,0
BEIDOU-3 M11 (C25),2018-067B,2026-06-03T14:52:53.953824,1.86227374,.0004486,54.1771,181.4639,14.2691,345.8030,0,U,43603,999,5289,0,.68E-6,0
BEIDOU-3 M13 (C32),2018-072A,2026-06-01T23:08:19.916160,1.86231411,.00078162,56.6123,63.1614,326.1971,33.7678,0,U,43622,999,5237,0,-.57E-6,0
BEIDOU-3 M14 (C33),2018-072B,2026-06-01T07:01:20.206272,1.86231413,.00065047,56.6136,63.1776,353.8390,6.1639,0,U,43623,999,5235,0,-.63E-6,0
BEIDOU-3 M16 (C35),2018-078A,2026-06-04T03:11:22.488288,1.86232447,.0007437,54.1026,300.4437,40.6821,319.3585,0,U,43647,999,5191,0,-.59E-6,0
BEIDOU-3 M15 (C34),2018-078B,2026-06-01T13:51:31.248864,1.86232507,.00045363,54.1007,300.5335,56.3394,303.6792,0,U,43648,999,5188,0,-.74E-6,0
BEIDOU-3 G1 (C59),2018-085A,2026-06-04T04:03:24.018336,1.00272093,.0008549,2.8355,97.7357,345.5119,30.2041,0,U,43683,999,2793,0,-.97E-6,0
COSMOS 2529 (757),2018-086A,2026-06-02T03:57:28.497024,2.13102175,.00116184,64.2936,193.1017,256.1127,103.8395,0,U,43687,999,5896,0,.69E-6,0
BEIDOU-3 M17 (C36),2018-093A,2026-06-03T14:55:08.731776,1.86228565,.0009972,54.1684,182.7566,291.4336,250.9335,0,U,43706,999,5128,0,.67E-6,0
BEIDOU-3 M18 (C37),2018-093B,2026-06-02T03:20:03.372288,1.86226715,.00077619,54.1690,182.7990,321.3599,38.6535,0,U,43707,999,5125,0,.68E-6,0
GPS BIII-1  (PRN 04),2018-109A,2026-06-03T19:11:52.692288,2.00561239,.00382233,55.6741,92.7152,198.2612,339.3200,0,U,43873,999,5480,0,.1E-7,0
BEIDOU-3 IGSO-1 (C38),2019-023A,2026-05-21T14:49:38.550720,1.00299087,.0025546,58.6591,37.9235,227.4594,312.4431,0,U,44204,999,694,0,-.234E-5,0
